{
  "type": "FeatureCollection",
  "features": [
    {
      "type": "Feature",
      "properties": {
        "norad_id": 30526,
        "name": "FENGYUN 1C DEB",
        "group": "fengyun-1c-debris",
        "lat": 0.18357003041709025,
        "lon": -113.19738072028179,
        "alt_km": 1071.7792196808177,
        "timestamp": "2025-12-10T09:57:44.976301+00:00",
        "meta_object_name": "FENGYUN 1C DEB",
        "meta_object_id": "1999-025AJQ",
        "meta_epoch": "2025-12-09T04:34:45.464736",
        "meta_mean_motion": 13.49895325,
        "meta_eccentricity": 0.0305945,
        "meta_inclination": 99.5476,
        "meta_ra_of_asc_node": 65.5968,
        "meta_arg_of_pericenter": 273.6009,
        "meta_mean_anomaly": 83.019,
        "meta_ephemeris_type": 0,
        "meta_classification_type": "U",
        "meta_norad_cat_id": 30526,
        "meta_element_set_no": 999,
        "meta_rev_at_epoch": 92610,
        "meta_bstar": 0.0018995751,
        "meta_mean_motion_dot": 1.568e-05,
        "meta_mean_motion_ddot": 0,
        "tle_line1": "1 30526U 99025AJQ 25343.19080399  .00001568  00000+0  18996-2 0  9991",
        "tle_line2": "2 30526  99.5476  65.5968 0305945 273.6009  83.0190 13.49895325926108"
      },
      "geometry": {
        "type": "Point",
        "coordinates": [
          -113.19738072028179,
          0.18357003041709025
        ]
      }
    },
    {
      "type": "Feature",
      "properties": {
        "norad_id": 30527,
        "name": "FENGYUN 1C DEB",
        "group": "fengyun-1c-debris",
        "lat": -69.37303987377,
        "lon": 179.68441910167024,
        "alt_km": 856.5186865645028,
        "timestamp": "2025-12-10T09:57:44.976313+00:00",
        "meta_object_name": "FENGYUN 1C DEB",
        "meta_object_id": "1999-025AJR",
        "meta_epoch": "2025-12-08T14:12:40.305024",
        "meta_mean_motion": 13.31018668,
        "meta_eccentricity": 0.0413021,
        "meta_inclination": 100.0641,
        "meta_ra_of_asc_node": 26.0481,
        "meta_arg_of_pericenter": 236.3127,
        "meta_mean_anomaly": 283.2307,
        "meta_ephemeris_type": 0,
        "meta_classification_type": "U",
        "meta_norad_cat_id": 30527,
        "meta_element_set_no": 999,
        "meta_rev_at_epoch": 91301,
        "meta_bstar": 0.0027092,
        "meta_mean_motion_dot": 2.018e-05,
        "meta_mean_motion_ddot": 0,
        "tle_line1": "1 30527U 99025AJR 25342.59213316  .00002018  00000+0  27092-2 0  9990",
        "tle_line2": "2 30527 100.0641  26.0481 0413021 236.3127 283.2307 13.31018668913013"
      },
      "geometry": {
        "type": "Point",
        "coordinates": [
          179.68441910167024,
          -69.37303987377
        ]
      }
    },
    {
      "type": "Feature",
      "properties": {
        "norad_id": 30528,
        "name": "FENGYUN 1C DEB",
        "group": "fengyun-1c-debris",
        "lat": -79.33565562132354,
        "lon": -95.5101989270106,
        "alt_km": 779.6756212417922,
        "timestamp": "2025-12-10T09:57:44.976323+00:00",
        "meta_object_name": "FENGYUN 1C DEB",
        "meta_object_id": "1999-025AJS",
        "meta_epoch": "2025-12-08T14:26:57.623712",
        "meta_mean_motion": 14.13485717,
        "meta_eccentricity": 0.0143279,
        "meta_inclination": 98.2382,
        "meta_ra_of_asc_node": 212.5233,
        "meta_arg_of_pericenter": 237.9765,
        "meta_mean_anomaly": 177.1341,
        "meta_ephemeris_type": 0,
        "meta_classification_type": "U",
        "meta_norad_cat_id": 30528,
        "meta_element_set_no": 999,
        "meta_rev_at_epoch": 97079,
        "meta_bstar": 0.00066775,
        "meta_mean_motion_dot": 1.346e-05,
        "meta_mean_motion_ddot": 0,
        "tle_line1": "1 30528U 99025AJS 25342.60205583  .00001346  00000+0  66775-3 0  9995",
        "tle_line2": "2 30528  98.2382 212.5233 0143279 237.9765 177.1341 14.13485717970792"
      },
      "geometry": {
        "type": "Point",
        "coordinates": [
          -95.5101989270106,
          -79.33565562132354
        ]
      }
    },
    {
      "type": "Feature",
      "properties": {
        "norad_id": 30529,
        "name": "FENGYUN 1C DEB",
        "group": "fengyun-1c-debris",
        "lat": 52.00517933944088,
        "lon": 97.57600791722322,
        "alt_km": 1019.494462815388,
        "timestamp": "2025-12-10T09:57:44.976333+00:00",
        "meta_object_name": "FENGYUN 1C DEB",
        "meta_object_id": "1999-025AJT",
        "meta_epoch": "2025-12-06T17:47:03.624288",
        "meta_mean_motion": 13.71588709,
        "meta_eccentricity": 0.02311835,
        "meta_inclination": 98.4889,
        "meta_ra_of_asc_node": 263.2998,
        "meta_arg_of_pericenter": 238.5675,
        "meta_mean_anomaly": 119.2686,
        "meta_ephemeris_type": 0,
        "meta_classification_type": "U",
        "meta_norad_cat_id": 30529,
        "meta_element_set_no": 999,
        "meta_rev_at_epoch": 93926,
        "meta_bstar": 0.001633705,
        "meta_mean_motion_dot": 1.743e-05,
        "meta_mean_motion_ddot": 0,
        "tle_line1": "1 30529U 99025AJT 25340.74101417  .00001743  00000+0  16337-2 0  9999",
        "tle_line2": "2 30529  98.4889 263.2998 0231183 238.5675 119.2686 13.71588709939261"
      },
      "geometry": {
        "type": "Point",
        "coordinates": [
          97.57600791722322,
          52.00517933944088
        ]
      }
    },
    {
      "type": "Feature",
      "properties": {
        "norad_id": 30530,
        "name": "FENGYUN 1C DEB",
        "group": "fengyun-1c-debris",
        "lat": -76.81819643225353,
        "lon": 61.94026728322422,
        "alt_km": 828.0950081967922,
        "timestamp": "2025-12-10T09:57:44.976343+00:00",
        "meta_object_name": "FENGYUN 1C DEB",
        "meta_object_id": "1999-025AJU",
        "meta_epoch": "2025-12-09T01:03:27.983232",
        "meta_mean_motion": 14.36773737,
        "meta_eccentricity": 0.01000848,
        "meta_inclination": 98.3968,
        "meta_ra_of_asc_node": 21.505,
        "meta_arg_of_pericenter": 147.7504,
        "meta_mean_anomaly": 244.2665,
        "meta_ephemeris_type": 0,
        "meta_classification_type": "U",
        "meta_norad_cat_id": 30530,
        "meta_element_set_no": 999,
        "meta_rev_at_epoch": 98732,
        "meta_bstar": 0.00035867976,
        "meta_mean_motion_dot": 1.077e-05,
        "meta_mean_motion_ddot": 0,
        "tle_line1": "1 30530U 99025AJU 25343.04407388  .00001077  00000+0  35868-3 0  9994",
        "tle_line2": "2 30530  98.3968  21.5050 0100084 147.7504 244.2665 14.36773737987326"
      },
      "geometry": {
        "type": "Point",
        "coordinates": [
          61.94026728322422,
          -76.81819643225353
        ]
      }
    },
    {
      "type": "Feature",
      "properties": {
        "norad_id": 30531,
        "name": "FENGYUN 1C DEB",
        "group": "fengyun-1c-debris",
        "lat": 69.02725643980605,
        "lon": 24.17605138163575,
        "alt_km": 686.1807558651708,
        "timestamp": "2025-12-10T09:57:44.976353+00:00",
        "meta_object_name": "FENGYUN 1C DEB",
        "meta_object_id": "1999-025AJV",
        "meta_epoch": "2025-12-09T18:41:12.204672",
        "meta_mean_motion": 14.61624964,
        "meta_eccentricity": 0.0028339,
        "meta_inclination": 102.3106,
        "meta_ra_of_asc_node": 168.5038,
        "meta_arg_of_pericenter": 214.1386,
        "meta_mean_anomaly": 145.7978,
        "meta_ephemeris_type": 0,
        "meta_classification_type": "U",
        "meta_norad_cat_id": 30531,
        "meta_element_set_no": 999,
        "meta_rev_at_epoch": 97652,
        "meta_bstar": 0.0066073,
        "meta_mean_motion_dot": 0.00033136,
        "meta_mean_motion_ddot": 0,
        "tle_line1": "1 30531U 99025AJV 25343.77861348  .00033136  00000+0  66073-2 0  9997",
        "tle_line2": "2 30531 102.3106 168.5038 0028339 214.1386 145.7978 14.61624964976521"
      },
      "geometry": {
        "type": "Point",
        "coordinates": [
          24.17605138163575,
          69.02725643980605
        ]
      }
    },
    {
      "type": "Feature",
      "properties": {
        "norad_id": 30532,
        "name": "FENGYUN 1C DEB",
        "group": "fengyun-1c-debris",
        "lat": 51.920461588708044,
        "lon": 20.84762057386228,
        "alt_km": 504.85759855412925,
        "timestamp": "2025-12-10T09:57:44.976363+00:00",
        "meta_object_name": "FENGYUN 1C DEB",
        "meta_object_id": "1999-025AJW",
        "meta_epoch": "2025-12-09T19:32:43.247616",
        "meta_mean_motion": 15.23287107,
        "meta_eccentricity": 0.0026007,
        "meta_inclination": 96.9624,
        "meta_ra_of_asc_node": 29.263,
        "meta_arg_of_pericenter": 267.483,
        "meta_mean_anomaly": 92.343,
        "meta_ephemeris_type": 0,
        "meta_classification_type": "U",
        "meta_norad_cat_id": 30532,
        "meta_element_set_no": 999,
        "meta_rev_at_epoch": 97643,
        "meta_bstar": 0.014888,
        "meta_mean_motion_dot": 0.00373778,
        "meta_mean_motion_ddot": 0,
        "tle_line1": "1 30532U 99025AJW 25343.81438944  .00373778  00000+0  14888-1 0  9990",
        "tle_line2": "2 30532  96.9624  29.2630 0026007 267.4830  92.3430 15.23287107976434"
      },
      "geometry": {
        "type": "Point",
        "coordinates": [
          20.84762057386228,
          51.920461588708044
        ]
      }
    }
  ]
}